{
  "type": "FeatureCollection",
  "features": [
    {
      "type": "Feature",
      "properties": {
        "norad_id": 66475,
        "name": "STARLINK-35538",
        "group": "last-30-days",
        "lat": -15.270143543632438,
        "lon": 43.21613811648254,
        "alt_km": 445.0039502065147,
        "timestamp": "2025-12-14T14:39:28.130923+00:00",
        "meta_object_name": "STARLINK-35538",
        "meta_object_id": "2025-262V",
        "meta_epoch": "2025-12-13T22:00:00.999936",
        "meta_mean_motion": 15.4067733,
        "meta_eccentricity": 0.000108,
        "meta_inclination": 43.0009,
        "meta_ra_of_asc_node": 64.2521,
        "meta_arg_of_pericenter": 294.3897,
        "meta_mean_anomaly": 148.7802,
        "meta_ephemeris_type": 0,
        "meta_classification_type": "U",
        "meta_norad_cat_id": 66475,
        "meta_element_set_no": 999,
        "meta_rev_at_epoch": 582,
        "meta_bstar": 0.00028484131,
        "meta_mean_motion_dot": 0.00011604,
        "meta_mean_motion_ddot": 0,
        "tle_line1": "1 66475U 25262V   25347.91667824  .00011604  00000+0  28484-3 0  9999",
        "tle_line2": "2 66475  43.0009  64.2521 0001080 294.3897 148.7802 15.40677330  5828"
      },
      "geometry": {
        "type": "Point",
        "coordinates": [
          43.21613811648254,
          -15.270143543632438
        ]
      }
    },
    {
      "type": "Feature",
      "properties": {
        "norad_id": 66476,
        "name": "STARLINK-35372",
        "group": "last-30-days",
        "lat": -7.498411219114994,
        "lon": 52.10408197233673,
        "alt_km": 448.3334900585169,
        "timestamp": "2025-12-14T14:39:28.130933+00:00",
        "meta_object_name": "STARLINK-35372",
        "meta_object_id": "2025-262W",
        "meta_epoch": "2025-12-13T22:00:00.999936",
        "meta_mean_motion": 15.41766675,
        "meta_eccentricity": 0.00016701,
        "meta_inclination": 43.0006,
        "meta_ra_of_asc_node": 64.2239,
        "meta_arg_of_pericenter": 260.955,
        "meta_mean_anomaly": 194.0707,
        "meta_ephemeris_type": 0,
        "meta_classification_type": "U",
        "meta_norad_cat_id": 66476,
        "meta_element_set_no": 999,
        "meta_rev_at_epoch": 572,
        "meta_bstar": -0.039384508,
        "meta_mean_motion_dot": -0.01536474,
        "meta_mean_motion_ddot": 0,
        "tle_line1": "1 66476U 25262W   25347.91667824 -.01536474  00000+0 -39385-1 0  9990",
        "tle_line2": "2 66476  43.0006  64.2239 0001670 260.9550 194.0707 15.41766675  5721"
      },
      "geometry": {
        "type": "Point",
        "coordinates": [
          52.10408197233673,
          -7.498411219114994
        ]
      }
    },
    {
      "type": "Feature",
      "properties": {
        "norad_id": 66477,
        "name": "STARLINK-35354",
        "group": "last-30-days",
        "lat": 9.790663027849583,
        "lon": 70.83238931327789,
        "alt_km": 440.1541667141955,
        "timestamp": "2025-12-14T14:39:28.130944+00:00",
        "meta_object_name": "STARLINK-35354",
        "meta_object_id": "2025-262X",
        "meta_epoch": "2025-12-13T22:00:00.999936",
        "meta_mean_motion": 15.44624212,
        "meta_eccentricity": 0.00013831,
        "meta_inclination": 43.0011,
        "meta_ra_of_asc_node": 64.1755,
        "meta_arg_of_pericenter": 278.9423,
        "meta_mean_anomaly": 195.4446,
        "meta_ephemeris_type": 0,
        "meta_classification_type": "U",
        "meta_norad_cat_id": 66477,
        "meta_element_set_no": 999,
        "meta_rev_at_epoch": 582,
        "meta_bstar": -0.049172568,
        "meta_mean_motion_dot": -0.02079886,
        "meta_mean_motion_ddot": 0,
        "tle_line1": "1 66477U 25262X   25347.91667824 -.02079886  00000+0 -49173-1 0  9997",
        "tle_line2": "2 66477  43.0011  64.1755 0001383 278.9423 195.4446 15.44624212  5828"
      },
      "geometry": {
        "type": "Point",
        "coordinates": [
          70.83238931327789,
          9.790663027849583
        ]
      }
    },
    {
      "type": "Feature",
      "properties": {
        "norad_id": 66478,
        "name": "STARLINK-35283",
        "group": "last-30-days",
        "lat": 16.978101789733575,
        "lon": 79.25920711388983,
        "alt_km": 435.27007332495396,
        "timestamp": "2025-12-14T14:39:28.130955+00:00",
        "meta_object_name": "STARLINK-35283",
        "meta_object_id": "2025-262Y",
        "meta_epoch": "2025-12-13T22:00:00.999936",
        "meta_mean_motion": 15.45965339,
        "meta_eccentricity": 0.000159,
        "meta_inclination": 43.001,
        "meta_ra_of_asc_node": 64.1568,
        "meta_arg_of_pericenter": 283.3368,
        "meta_mean_anomaly": 198.6135,
        "meta_ephemeris_type": 0,
        "meta_classification_type": "U",
        "meta_norad_cat_id": 66478,
        "meta_element_set_no": 999,
        "meta_rev_at_epoch": 582,
        "meta_bstar": -0.047170027,
        "meta_mean_motion_dot": -0.02088959,
        "meta_mean_motion_ddot": 0,
        "tle_line1": "1 66478U 25262Y   25347.91667824 -.02088959  00000+0 -47170-1 0  9994",
        "tle_line2": "2 66478  43.0010  64.1568 0001590 283.3368 198.6135 15.45965339  5827"
      },
      "geometry": {
        "type": "Point",
        "coordinates": [
          79.25920711388983,
          16.978101789733575
        ]
      }
    },
    {
      "type": "Feature",
      "properties": {
        "norad_id": 66479,
        "name": "STARLINK-35581",
        "group": "last-30-days",
        "lat": 1.2761636832195982,
        "lon": 61.559717917914405,
        "alt_km": 446.01900881837446,
        "timestamp": "2025-12-14T14:39:28.130965+00:00",
        "meta_object_name": "STARLINK-35581",
        "meta_object_id": "2025-262Z",
        "meta_epoch": "2025-12-13T22:00:00.999936",
        "meta_mean_motion": 15.4385731,
        "meta_eccentricity": 0.00012563,
        "meta_inclination": 43.0011,
        "meta_ra_of_asc_node": 64.1957,
        "meta_arg_of_pericenter": 309.7484,
        "meta_mean_anomaly": 155.5125,
        "meta_ephemeris_type": 0,
        "meta_classification_type": "U",
        "meta_norad_cat_id": 66479,
        "meta_element_set_no": 999,
        "meta_rev_at_epoch": 582,
        "meta_bstar": -0.070840922,
        "meta_mean_motion_dot": -0.02913832,
        "meta_mean_motion_ddot": 0,
        "tle_line1": "1 66479U 25262Z   25347.91667824 -.02913832  00000+0 -70841-1 0  9993",
        "tle_line2": "2 66479  43.0011  64.1957 0001256 309.7484 155.5125 15.43857310  5820"
      },
      "geometry": {
        "type": "Point",
        "coordinates": [
          61.559717917914405,
          1.2761636832195982
        ]
      }
    },
    {
      "type": "Feature",
      "properties": {
        "norad_id": 66480,
        "name": "STARLINK-35670",
        "group": "last-30-days",
        "lat": 22.92298835656603,
        "lon": 87.09827353294027,
        "alt_km": 430.6344156916466,
        "timestamp": "2025-12-14T14:39:28.130976+00:00",
        "meta_object_name": "STARLINK-35670",
        "meta_object_id": "2025-262AA",
        "meta_epoch": "2025-12-13T22:00:00.999936",
        "meta_mean_motion": 15.4730138,
        "meta_eccentricity": 0.00011793,
        "meta_inclination": 43.0011,
        "meta_ra_of_asc_node": 64.1412,
        "meta_arg_of_pericenter": 281.5162,
        "meta_mean_anomaly": 206.5888,
        "meta_ephemeris_type": 0,
        "meta_classification_type": "U",
        "meta_norad_cat_id": 66480,
        "meta_element_set_no": 999,
        "meta_rev_at_epoch": 582,
        "meta_bstar": -0.045329584,
        "meta_mean_motion_dot": -0.02101502,
        "meta_mean_motion_ddot": 0,
        "tle_line1": "1 66480U 25262AA  25347.91667824 -.02101502  00000+0 -45330-1 0  9993",
        "tle_line2": "2 66480  43.0011  64.1412 0001179 281.5162 206.5888 15.47301380  5820"
      },
      "geometry": {
        "type": "Point",
        "coordinates": [
          87.09827353294027,
          22.92298835656603
        ]
      }
    },
    {
      "type": "Feature",
      "properties": {
        "norad_id": 66481,
        "name": "STARLINK-35698",
        "group": "last-30-days",
        "lat": 33.360764669384686,
        "lon": 105.01550760091587,
        "alt_km": 409.94383308017586,
        "timestamp": "2025-12-14T14:39:28.130987+00:00",
        "meta_object_name": "STARLINK-35698",
        "meta_object_id": "2025-262AB",
        "meta_epoch": "2025-12-13T12:08:51.752256",
        "meta_mean_motion": 15.50571361,
        "meta_eccentricity": 0.00023354,
        "meta_inclination": 43.0008,
        "meta_ra_of_asc_node": 66.5258,
        "meta_arg_of_pericenter": 281.4297,
        "meta_mean_anomaly": 78.6301,
        "meta_ephemeris_type": 0,
        "meta_classification_type": "U",
        "meta_norad_cat_id": 66481,
        "meta_element_set_no": 999,
        "meta_rev_at_epoch": 568,
        "meta_bstar": 0.0018232068,
        "meta_mean_motion_dot": 0.0010808,
        "meta_mean_motion_ddot": 0,
        "tle_line1": "1 66481U 25262AB  25347.50615454  .00108080  00000+0  18232-2 0  9997",
        "tle_line2": "2 66481  43.0008  66.5258 0002335 281.4297  78.6301 15.50571361  5688"
      },
      "geometry": {
        "type": "Point",
        "coordinates": [
          105.01550760091587,
          33.360764669384686
        ]
      }
    }
  ]
}